{
  "type": "FeatureCollection",
  "features": [
    {
      "type": "Feature",
      "properties": {
        "norad_id": 31725,
        "name": "FENGYUN 1C DEB",
        "group": "fengyun-1c-debris",
        "lat": -18.574830999837033,
        "lon": 17.751210401583393,
        "alt_km": 1768.5545680254236,
        "timestamp": "2025-12-09T07:41:33.492305+00:00",
        "meta_object_name": "FENGYUN 1C DEB",
        "meta_object_id": "1999-025CDY",
        "meta_epoch": "2025-12-07T20:49:59.663424",
        "meta_mean_motion": 12.79163531,
        "meta_eccentricity": 0.06943994,
        "meta_inclination": 99.1802,
        "meta_ra_of_asc_node": 199.6743,
        "meta_arg_of_pericenter": 345.7659,
        "meta_mean_anomaly": 12.4721,
        "meta_ephemeris_type": 0,
        "meta_classification_type": "U",
        "meta_norad_cat_id": 31725,
        "meta_element_set_no": 999,
        "meta_rev_at_epoch": 86419,
        "meta_bstar": 0.0045755378,
        "meta_mean_motion_dot": 2.821e-05,
        "meta_mean_motion_ddot": 0,
        "tle_line1": "1 31725U 99025CDY 25341.86805166  .00002821  00000+0  45755-2 0  9998",
        "tle_line2": "2 31725  99.1802 199.6743 0694399 345.7659  12.4721 12.79163531864190"
      },
      "geometry": {
        "type": "Point",
        "coordinates": [
          17.751210401583393,
          -18.574830999837033
        ]
      }
    },
    {
      "type": "Feature",
      "properties": {
        "norad_id": 31727,
        "name": "FENGYUN 1C DEB",
        "group": "fengyun-1c-debris",
        "lat": -64.97714403598724,
        "lon": -104.27190178087194,
        "alt_km": 781.4285795695278,
        "timestamp": "2025-12-09T07:41:33.492316+00:00",
        "meta_object_name": "FENGYUN 1C DEB",
        "meta_object_id": "1999-025CEA",
        "meta_epoch": "2025-12-07T06:13:33.792960",
        "meta_mean_motion": 14.36924815,
        "meta_eccentricity": 0.0032091,
        "meta_inclination": 98.8668,
        "meta_ra_of_asc_node": 93.1427,
        "meta_arg_of_pericenter": 357.0639,
        "meta_mean_anomaly": 33.7228,
        "meta_ephemeris_type": 0,
        "meta_classification_type": "U",
        "meta_norad_cat_id": 31727,
        "meta_element_set_no": 999,
        "meta_rev_at_epoch": 71590,
        "meta_bstar": 0.002993435,
        "meta_mean_motion_dot": 8.877e-05,
        "meta_mean_motion_ddot": 0,
        "tle_line1": "1 31727U 99025CEA 25341.25941890  .00008877  00000+0  29934-2 0  9996",
        "tle_line2": "2 31727  98.8668  93.1427 0032091 357.0639  33.7228 14.36924815715901"
      },
      "geometry": {
        "type": "Point",
        "coordinates": [
          -104.27190178087194,
          -64.97714403598724
        ]
      }
    },
    {
      "type": "Feature",
      "properties": {
        "norad_id": 31731,
        "name": "FENGYUN 1C DEB",
        "group": "fengyun-1c-debris",
        "lat": 21.821768026208524,
        "lon": 27.467300843456137,
        "alt_km": 757.0922656147932,
        "timestamp": "2025-12-09T07:41:33.492326+00:00",
        "meta_object_name": "FENGYUN 1C DEB",
        "meta_object_id": "1999-025CEE",
        "meta_epoch": "2025-11-27T02:07:07.827456",
        "meta_mean_motion": 14.40063792,
        "meta_eccentricity": 0.00116613,
        "meta_inclination": 99.3084,
        "meta_ra_of_asc_node": 17.9462,
        "meta_arg_of_pericenter": 144.9647,
        "meta_mean_anomaly": 215.2308,
        "meta_ephemeris_type": 0,
        "meta_classification_type": "U",
        "meta_norad_cat_id": 31731,
        "meta_element_set_no": 999,
        "meta_rev_at_epoch": 95605,
        "meta_bstar": 0.0018623031,
        "meta_mean_motion_dot": 5.831e-05,
        "meta_mean_motion_ddot": 0,
        "tle_line1": "1 31731U 99025CEE 25331.08828504  .00005831  00000+0  18623-2 0  9997",
        "tle_line2": "2 31731  99.3084  17.9462 0011661 144.9647 215.2308 14.40063792956051"
      },
      "geometry": {
        "type": "Point",
        "coordinates": [
          27.467300843456137,
          21.821768026208524
        ]
      }
    },
    {
      "type": "Feature",
      "properties": {
        "norad_id": 31732,
        "name": "FENGYUN 1C DEB",
        "group": "fengyun-1c-debris",
        "lat": -68.51713123514234,
        "lon": 40.757643665788066,
        "alt_km": 835.3690987340078,
        "timestamp": "2025-12-09T07:41:33.492340+00:00",
        "meta_object_name": "FENGYUN 1C DEB",
        "meta_object_id": "1999-025CEF",
        "meta_epoch": "2025-12-08T20:07:16.308480",
        "meta_mean_motion": 14.1224579,
        "meta_eccentricity": 0.00394614,
        "meta_inclination": 98.5734,
        "meta_ra_of_asc_node": 17.7578,
        "meta_arg_of_pericenter": 256.7326,
        "meta_mean_anomaly": 102.9444,
        "meta_ephemeris_type": 0,
        "meta_classification_type": "U",
        "meta_norad_cat_id": 31732,
        "meta_element_set_no": 999,
        "meta_rev_at_epoch": 64275,
        "meta_bstar": 0.00046065078,
        "meta_mean_motion_dot": 8.11e-06,
        "meta_mean_motion_ddot": 0,
        "tle_line1": "1 31732U 99025CEF 25342.83838320  .00000811  00000+0  46065-3 0  9995",
        "tle_line2": "2 31732  98.5734  17.7578 0039461 256.7326 102.9444 14.12245790642756"
      },
      "geometry": {
        "type": "Point",
        "coordinates": [
          40.757643665788066,
          -68.51713123514234
        ]
      }
    },
    {
      "type": "Feature",
      "properties": {
        "norad_id": 31734,
        "name": "FENGYUN 1C DEB",
        "group": "fengyun-1c-debris",
        "lat": -13.427648678792913,
        "lon": -22.407399804029545,
        "alt_km": 735.3540796876141,
        "timestamp": "2025-12-09T07:41:33.492351+00:00",
        "meta_object_name": "FENGYUN 1C DEB",
        "meta_object_id": "1999-025CEH",
        "meta_epoch": "2025-12-07T17:06:17.102016",
        "meta_mean_motion": 14.28996456,
        "meta_eccentricity": 0.01041764,
        "meta_inclination": 98.4963,
        "meta_ra_of_asc_node": 333.9805,
        "meta_arg_of_pericenter": 22.3457,
        "meta_mean_anomaly": 338.2216,
        "meta_ephemeris_type": 0,
        "meta_classification_type": "U",
        "meta_norad_cat_id": 31734,
        "meta_element_set_no": 999,
        "meta_rev_at_epoch": 96379,
        "meta_bstar": 0.00083063355,
        "meta_mean_motion_dot": 2.185e-05,
        "meta_mean_motion_ddot": 0,
        "tle_line1": "1 31734U 99025CEH 25341.71269794  .00002185  00000+0  83063-3 0  9991",
        "tle_line2": "2 31734  98.4963 333.9805 0104176  22.3457 338.2216 14.28996456963795"
      },
      "geometry": {
        "type": "Point",
        "coordinates": [
          -22.407399804029545,
          -13.427648678792913
        ]
      }
    },
    {
      "type": "Feature",
      "properties": {
        "norad_id": 31735,
        "name": "FENGYUN 1C DEB",
        "group": "fengyun-1c-debris",
        "lat": 81.1814028801862,
        "lon": 9.930447121175431,
        "alt_km": 780.0956167220756,
        "timestamp": "2025-12-09T07:41:33.492362+00:00",
        "meta_object_name": "FENGYUN 1C DEB",
        "meta_object_id": "1999-025CEJ",
        "meta_epoch": "2025-12-08T17:58:02.376768",
        "meta_mean_motion": 14.42528813,
        "meta_eccentricity": 0.005889,
        "meta_inclination": 98.5802,
        "meta_ra_of_asc_node": 86.0568,
        "meta_arg_of_pericenter": 296.5573,
        "meta_mean_anomaly": 62.9587,
        "meta_ephemeris_type": 0,
        "meta_classification_type": "U",
        "meta_norad_cat_id": 31735,
        "meta_element_set_no": 999,
        "meta_rev_at_epoch": 96607,
        "meta_bstar": 0.00076192431,
        "meta_mean_motion_dot": 2.534e-05,
        "meta_mean_motion_ddot": 0,
        "tle_line1": "1 31735U 99025CEJ 25342.74863862  .00002534  00000+0  76192-3 0  9995",
        "tle_line2": "2 31735  98.5802  86.0568 0058890 296.5573  62.9587 14.42528813966076"
      },
      "geometry": {
        "type": "Point",
        "coordinates": [
          9.930447121175431,
          81.1814028801862
        ]
      }
    },
    {
      "type": "Feature",
      "properties": {
        "norad_id": 31736,
        "name": "FENGYUN 1C DEB",
        "group": "fengyun-1c-debris",
        "lat": 80.98358017592658,
        "lon": -120.40786456658718,
        "alt_km": 845.0875334335842,
        "timestamp": "2025-12-09T07:41:33.492372+00:00",
        "meta_object_name": "FENGYUN 1C DEB",
        "meta_object_id": "1999-025CEK",
        "meta_epoch": "2025-12-07T06:00:46.728576",
        "meta_mean_motion": 14.14178475,
        "meta_eccentricity": 0.00109922,
        "meta_inclination": 98.6782,
        "meta_ra_of_asc_node": 343.321,
        "meta_arg_of_pericenter": 257.8319,
        "meta_mean_anomaly": 102.1623,
        "meta_ephemeris_type": 0,
        "meta_classification_type": "U",
        "meta_norad_cat_id": 31736,
        "meta_element_set_no": 999,
        "meta_rev_at_epoch": 63987,
        "meta_bstar": 0.00026653832,
        "meta_mean_motion_dot": 4.65e-06,
        "meta_mean_motion_ddot": 0,
        "tle_line1": "1 31736U 99025CEK 25341.25054084  .00000465  00000+0  26654-3 0  9998",
        "tle_line2": "2 31736  98.6782 343.3210 0010992 257.8319 102.1623 14.14178475639874"
      },
      "geometry": {
        "type": "Point",
        "coordinates": [
          -120.40786456658718,
          80.98358017592658
        ]
      }
    }
  ]
}